{
    "links": {
        "self": "http://www.neowsapp.com/rest/v1/neo/54051015?api_key=iIulBulltgU6a56xZRHN4H3l9WmuAYTsLGpBGhQ2"
    },
    "id": "54051015",
    "neo_reference_id": "54051015",
    "name": "(2020 PW1)",
    "designation": "2020 PW1",
    "nasa_jpl_url": "http://ssd.jpl.nasa.gov/sbdb.cgi?sstr=54051015",
    "absolute_magnitude_h": 26.462,
    "estimated_diameter": {
        "kilometers": {
            "estimated_diameter_min": 0.0135567309,
            "estimated_diameter_max": 0.0303137719
        },
        "meters": {
            "estimated_diameter_min": 13.5567309368,
            "estimated_diameter_max": 30.3137719275
        },
        "miles": {
            "estimated_diameter_min": 0.0084237595,
            "estimated_diameter_max": 0.0188360988
        },
        "feet": {
            "estimated_diameter_min": 44.4774651268,
            "estimated_diameter_max": 99.4546354905
        }
    },
    "is_potentially_hazardous_asteroid": false,
    "close_approach_data": [
        {
            "close_approach_date": "2020-08-02",
            "close_approach_date_full": "2020-Aug-02 03:50",
            "epoch_date_close_approach": 1596340200000,
            "relative_velocity": {
                "kilometers_per_second": "7.8232837413",
                "kilometers_per_hour": "28163.8214686668",
                "miles_per_hour": "17499.9034009058"
            },
            "miss_distance": {
                "astronomical": "0.0276153396",
                "lunar": "10.7423671044",
                "kilometers": "4131195.983486652",
                "miles": "2567006.1504817176"
            },
            "orbiting_body": "Earth"
        }
    ],
    "orbital_data": {
        "orbit_id": "1",
        "orbit_determination_date": "2020-08-13 10:12:03",
        "first_observation_date": "2020-08-12",
        "last_observation_date": "2020-08-13",
        "data_arc_in_days": 1,
        "observations_used": 11,
        "orbit_uncertainty": "9",
        "minimum_orbit_intersection": ".0276195",
        "jupiter_tisserand_invariant": "4.368",
        "epoch_osculation": "2459073.5",
        "eccentricity": ".3413589172078714",
        "semi_major_axis": "1.548992344327489",
        "inclination": "10.26254364173212",
        "ascending_node_longitude": "314.1189440475761",
        "orbital_period": "704.1615932436455",
        "perihelion_distance": "1.020229994904575",
        "perihelion_argument": "334.12836429",
        "aphelion_distance": "2.077754693750403",
        "perihelion_time": "2459043.869453149227",
        "mean_anomaly": "15.14850705949737",
        "mean_motion": ".5112462870087792",
        "equinox": "J2000",
        "orbit_class": {
            "orbit_class_type": "AMO",
            "orbit_class_description": "Near-Earth asteroid orbits similar to that of 1221 Amor",
            "orbit_class_range": "1.017 AU < q (perihelion) < 1.3 AU"
        }
    },
    "is_sentry_object": false
}